OBJECT_NAME,OBJECT_ID,EPOCH,MEAN_MOTION,ECCENTRICITY,INCLINATION,RA_OF_ASC_NODE,ARG_OF_PERICENTER,MEAN_ANOMALY,EPHEMERIS_TYPE,CLASSIFICATION_TYPE,NORAD_CAT_ID,ELEMENT_SET_NO,REV_AT_EPOCH,BSTAR,MEAN_MOTION_DOT,MEAN_MOTION_DDOT
ONEWEB-0012,2019-010A,2026-06-12T05:41:49.539552,13.16594247,.00020512,87.9097,229.7683,86.5244,273.6121,0,U,44057,999,35091,.11701646E-3,.58E-6,0
ONEWEB-0010,2019-010B,2026-06-12T04:28:51.893472,13.16595003,.00017931,87.9101,229.7739,105.9147,254.2181,0,U,44058,999,35095,.24016232E-3,.105E-5,0
ONEWEB-0008,2019-010C,2026-06-12T17:51:23.544000,13.16595790,.0002314,87.9097,229.6587,99.4120,260.7273,0,U,44059,999,35114,-.12577E-3,-.35E-6,0
ONEWEB-0007,2019-010D,2026-06-12T18:36:52.350624,13.15548312,.0001659,87.8999,260.1001,97.0251,263.1068,0,U,44060,999,35079,.28724E-4,.24E-6,0
ONEWEB-0006,2019-010E,2026-06-12T18:42:33.708384,13.15548708,.0001839,87.9010,260.0631,103.1181,257.0154,0,U,44061,999,35084,.9537E-4,.49E-6,0
ONEWEB-0011,2019-010F,2026-06-12T19:46:26.499648,13.15547126,.0002038,87.9013,260.0636,106.0761,254.0594,0,U,44062,999,35084,-.26495E-3,-.87E-6,0
ONEWEB-0013,2020-008A,2026-06-12T04:52:49.179072,13.09461725,.00024576,87.8530,53.8308,57.7665,302.3700,0,U,45131,999,30541,-.84385057E-4,-.16E-6,0
ONEWEB-0017,2020-008B,2026-06-12T21:02:02.912640,13.10369933,.0001631,87.8836,37.1274,87.6725,272.4589,0,U,45132,999,30738,.12805E-2,.46E-5,0
ONEWEB-0020,2020-008C,2026-06-11T02:10:21.029952,13.10181111,.00025391,87.8849,37.4818,39.3679,320.7632,0,U,45133,999,30754,-.7276454E-1,-.25249E-3,0
ONEWEB-0021,2020-008D,2026-06-12T04:10:56.667072,13.10374438,.00017607,87.8836,37.2817,79.1832,280.9493,0,U,45134,999,30799,.19092258E-2,.679E-5,0
ONEWEB-0023,2020-008F,2026-06-12T20:56:04.756128,13.10371195,.0001914,87.8839,37.1244,79.4376,280.6967,0,U,45136,999,30751,.1778E-2,.633E-5,0
ONEWEB-0024,2020-008G,2026-06-12T03:47:13.566624,13.10376000,.00017699,87.8849,37.2593,82.2367,277.8961,0,U,45137,999,30758,-.3411915E-5,.11E-6,0
ONEWEB-0025,2020-008H,2026-06-12T03:46:49.745280,13.10375738,.00021757,87.8852,37.2488,92.6609,267.4768,0,U,45138,999,30791,-.43070562E-4,-.2E-7,0
ONEWEB-0026,2020-008J,2026-06-12T21:15:44.739936,13.11419884,.0001768,87.8889,21.9248,89.5384,270.5946,0,U,45139,999,31054,.43471E-3,.167E-5,0
ONEWEB-0028,2020-008K,2026-06-12T20:40:19.481376,13.11420626,.0002047,87.8887,21.9378,68.5759,291.5587,0,U,45140,999,30805,-.2608E-2,-.912E-5,0
ONEWEB-0032,2020-008L,2026-06-12T21:04:38.252928,13.10369498,.0002088,87.8835,37.1286,70.9814,289.1539,0,U,45141,999,30773,.11507E-2,.414E-5,0
ONEWEB-0033,2020-008M,2026-06-12T03:58:59.266272,13.10375386,.00015229,87.8835,37.2780,96.1201,264.0099,0,U,45142,999,30755,.12401686E-2,.446E-5,0
ONEWEB-0035,2020-008N,2026-06-12T20:57:28.839744,13.10372360,.0001731,87.8832,37.1297,84.8723,275.2602,0,U,45143,999,30737,.1618E-2,.577E-5,0
ONEWEB-0036,2020-008P,2026-06-12T03:49:53.963040,13.09985188,.00019852,87.8859,37.2825,77.5357,282.5992,0,U,45144,999,30770,.21477724E-3,.87E-6,0
ONEWEB-0038,2020-008Q,2026-06-12T03:11:56.376096,13.11417513,.00008082,87.8904,22.0824,15.8959,344.2195,0,U,45145,999,30966,.16013344E-2,.58E-5,0
ONEWEB-0039,2020-008R,2026-06-12T04:03:46.432224,13.10372691,.00019659,87.8830,37.2675,67.4369,292.6966,0,U,45146,999,30750,.49441555E-3,.185E-5,0
ONEWEB-0040,2020-008S,2026-06-12T03:54:12.292992,13.10375739,.00017243,87.8839,37.2798,78.2336,281.8985,0,U,45147,999,30720,.73315875E-3,.269E-5,0
ONEWEB-0043,2020-008U,2026-06-12T03:56:36.048768,13.10375742,.00021508,87.8843,37.2667,67.9573,292.1783,0,U,45149,999,30752,.10121173E-2,.366E-5,0
ONEWEB-0044,2020-008V,2026-06-12T21:06:49.655232,13.10369680,.0001801,87.8842,37.1244,76.0329,284.0998,0,U,45150,999,30791,.10705E-2,.386E-5,0
ONEWEB-0045,2020-008W,2026-06-12T03:04:24.968064,13.11418715,.00017998,87.8899,22.0663,80.6208,279.5123,0,U,45151,999,30974,.13143056E-2,.479E-5,0
ONEWEB-0047,2020-008X,2026-06-12T20:57:04.601088,13.10371755,.000159,87.8841,37.1254,83.3947,276.7361,0,U,45152,999,30763,.16624E-2,.593E-5,0
ONEWEB-0048,2020-008Y,2026-06-12T04:20:30.454656,13.10372293,.00017482,87.8834,37.2847,82.4042,277.7284,0,U,45153,999,30715,.18891146E-2,.672E-5,0
ONEWEB-0049,2020-008Z,2026-06-12T04:25:05.731104,13.10371365,.00022251,87.8837,37.2734,83.3773,276.7608,0,U,45154,999,30737,.17149033E-2,.611E-5,0
ONEWEB-0051,2020-008AA,2026-06-12T21:20:39.420096,13.11418961,.0001823,87.8892,21.9229,83.9205,276.2131,0,U,45155,999,31052,.87192E-3,.322E-5,0
ONEWEB-0052,2020-008AB,2026-06-12T04:54:08.914176,13.10370346,.00022452,87.8837,37.2551,82.3225,277.8157,0,U,45156,999,30728,-.98573968E-3,-.331E-5,0
