ONEWEB-0012             
1 44057U 19010A   26163.23737893  .00000058  00000+0  11702-3 0  9997
2 44057  87.9097 229.7683 0002051  86.5244 273.6121 13.16594247350918
ONEWEB-0010             
1 44058U 19010B   26163.18671173  .00000105  00000+0  24016-3 0  9995
2 44058  87.9101 229.7739 0001793 105.9147 254.2181 13.16595003350953
ONEWEB-0008             
1 44059U 19010C   26163.74402250 -.00000035  00000+0 -12577-3 0  9999
2 44059  87.9097 229.6587 0002314  99.4120 260.7273 13.16595790351145
ONEWEB-0007             
1 44060U 19010D   26163.77560591  .00000024  00000+0  28724-4 0  9995
2 44060  87.8999 260.1001 0001659  97.0251 263.1068 13.15548312350794
ONEWEB-0006             
1 44061U 19010E   26163.77955681  .00000049  00000+0  95370-4 0  9992
2 44061  87.9010 260.0631 0001839 103.1181 257.0154 13.15548708350842
ONEWEB-0011             
1 44062U 19010F   26163.82391782 -.00000087  00000+0 -26495-3 0  9990
2 44062  87.9013 260.0636 0002038 106.0761 254.0594 13.15547126350847
ONEWEB-0013             
1 45131U 20008A   26163.20334698 -.00000016  00000+0 -84385-4 0  9997
2 45131  87.8530  53.8308 0002457  57.7665 302.3700 13.09461725305414
ONEWEB-0017             
1 45132U 20008B   26163.87642260  .00000460  00000+0  12805-2 0  9995
2 45132  87.8836  37.1274 0001631  87.6725 272.4589 13.10369933307383
ONEWEB-0020             
1 45133U 20008C   26162.09052118 -.00025249  00000+0 -72765-1 0  9990
2 45133  87.8849  37.4818 0002539  39.3679 320.7632 13.10181111307549
ONEWEB-0021             
1 45134U 20008D   26163.17426698  .00000679  00000+0  19092-2 0  9992
2 45134  87.8836  37.2817 0001760  79.1832 280.9493 13.10374438307998
ONEWEB-0023             
1 45136U 20008F   26163.87227727  .00000633  00000+0  17780-2 0  9995
2 45136  87.8839  37.1244 0001914  79.4376 280.6967 13.10371195307511
ONEWEB-0024             
1 45137U 20008G   26163.15779591  .00000011  00000+0 -34119-5 0  9997
2 45137  87.8849  37.2593 0001769  82.2367 277.8961 13.10376000307580
ONEWEB-0025             
1 45138U 20008H   26163.15752020 -.00000002  00000+0 -43071-4 0  9993
2 45138  87.8852  37.2488 0002175  92.6609 267.4768 13.10375738307918
ONEWEB-0026             
1 45139U 20008J   26163.88593449  .00000167  00000+0  43471-3 0  9995
2 45139  87.8889  21.9248 0001768  89.5384 270.5946 13.11419884310543
ONEWEB-0028             
1 45140U 20008K   26163.86133659 -.00000912  00000+0 -26080-2 0  9994
2 45140  87.8887  21.9378 0002047  68.5759 291.5587 13.11420626308054
ONEWEB-0032             
1 45141U 20008L   26163.87822052  .00000414  00000+0  11507-2 0  9991
2 45141  87.8835  37.1286 0002088  70.9814 289.1539 13.10369498307731
ONEWEB-0033             
1 45142U 20008M   26163.16596373  .00000446  00000+0  12402-2 0  9998
2 45142  87.8835  37.2780 0001522  96.1201 264.0099 13.10375386307550
ONEWEB-0035             
1 45143U 20008N   26163.87325046  .00000577  00000+0  16180-2 0  9996
2 45143  87.8832  37.1297 0001731  84.8723 275.2602 13.10372360307378
ONEWEB-0036             
1 45144U 20008P   26163.15965235  .00000087  00000+0  21478-3 0  9991
2 45144  87.8859  37.2825 0001985  77.5357 282.5992 13.09985188307705
ONEWEB-0038             
1 45145U 20008Q   26163.13329139  .00000580  00000+0  16013-2 0  9993
2 45145  87.8904  22.0824 0000808  15.8959 344.2195 13.11417513309667
ONEWEB-0039             
1 45146U 20008R   26163.16928741  .00000185  00000+0  49442-3 0  9995
2 45146  87.8830  37.2675 0001965  67.4369 292.6966 13.10372691307500
ONEWEB-0040             
1 45147U 20008S   26163.16264228  .00000269  00000+0  73316-3 0  9999
2 45147  87.8839  37.2798 0001724  78.2336 281.8985 13.10375739307207
ONEWEB-0043             
1 45149U 20008U   26163.16430612  .00000366  00000+0  10121-2 0  9995
2 45149  87.8843  37.2667 0002150  67.9573 292.1783 13.10375742307521
ONEWEB-0044             
1 45150U 20008V   26163.87974138  .00000386  00000+0  10705-2 0  9991
2 45150  87.8842  37.1244 0001801  76.0329 284.0998 13.10369680307919
ONEWEB-0045             
1 45151U 20008W   26163.12806676  .00000479  00000+0  13143-2 0  9993
2 45151  87.8899  22.0663 0001799  80.6208 279.5123 13.11418715309740
ONEWEB-0047             
1 45152U 20008X   26163.87296992  .00000593  00000+0  16624-2 0  9994
2 45152  87.8841  37.1254 0001590  83.3947 276.7361 13.10371755307630
ONEWEB-0048             
1 45153U 20008Y   26163.18090804  .00000672  00000+0  18891-2 0  9999
2 45153  87.8834  37.2847 0001748  82.4042 277.7284 13.10372293307153
ONEWEB-0049             
1 45154U 20008Z   26163.18409411  .00000611  00000+0  17149-2 0  9996
2 45154  87.8837  37.2734 0002225  83.3773 276.7608 13.10371365307376
ONEWEB-0051             
1 45155U 20008AA  26163.88934514  .00000322  00000+0  87192-3 0  9996
2 45155  87.8892  21.9229 0001823  83.9205 276.2131 13.11418961310528
ONEWEB-0052             
1 45156U 20008AB  26163.20426984 -.00000331  00000+0 -98574-3 0  9998
2 45156  87.8837  37.2551 0002245  82.3225 277.8157 13.10370346307287
